{
  "norad_id": 63807,
  "name": "STARLINK-34109",
  "history": [
    {
      "epoch": "2026-03-28T15:04:47.118432",
      "apogee_km": 486.96368853490367,
      "perigee_km": 479.0527880751388,
      "latitude_deg": -32.12959064627444,
      "longitude_deg": -98.98097951989621,
      "semi_major_axis_km": 6861.145238305021,
      "eccentricity": 0.0005765,
      "inclination_deg": 42.9985,
      "raan_deg": 65.3681,
      "arg_perigee_deg": 259.3515,
      "mean_anomaly_deg": 100.6687,
      "mean_motion_rev_day": 15.27593645
    }
  ]
}